<?xml version="1.0" encoding="UTF-8"?>
<ndm xmlns:xsi="http://www.w3.org/2001/XMLSchema-instance" xsi:noNamespaceSchemaLocation="https://sanaregistry.org/r/ndmxml_unqualified/ndmxml-2.0.0-master-2.0.xsd">
<omm id="CCSDS_OMM_VERS" version="2.0">
<header><CREATION_DATE/><ORIGINATOR/></header><body><segment><metadata><OBJECT_NAME>IRIDIUM 36 [-]</OBJECT_NAME><OBJECT_ID>1997-056C</OBJECT_ID><CENTER_NAME>EARTH</CENTER_NAME><REF_FRAME>TEME</REF_FRAME><TIME_SYSTEM>UTC</TIME_SYSTEM><MEAN_ELEMENT_THEORY>SGP4</MEAN_ELEMENT_THEORY></metadata><data><meanElements><EPOCH>2023-11-15T07:45:40.038048</EPOCH><MEAN_MOTION>14.36508744</MEAN_MOTION><ECCENTRICITY>.0002261</ECCENTRICITY><INCLINATION>86.3988</INCLINATION><RA_OF_ASC_NODE>56.4485</RA_OF_ASC_NODE><ARG_OF_PERICENTER>93.7770</ARG_OF_PERICENTER><MEAN_ANOMALY>266.3685</MEAN_ANOMALY></meanElements><tleParameters><EPHEMERIS_TYPE>0</EPHEMERIS_TYPE><CLASSIFICATION_TYPE>U</CLASSIFICATION_TYPE><NORAD_CAT_ID>24967</NORAD_CAT_ID><ELEMENT_SET_NO>999</ELEMENT_SET_NO><REV_AT_EPOCH>36894</REV_AT_EPOCH><BSTAR>.20066E-3</BSTAR><MEAN_MOTION_DOT>.608E-5</MEAN_MOTION_DOT><MEAN_MOTION_DDOT>0</MEAN_MOTION_DDOT></tleParameters></data></segment></body></omm>
<omm id="CCSDS_OMM_VERS" version="2.0">
<header><CREATION_DATE/><ORIGINATOR/></header><body><segment><metadata><OBJECT_NAME>IRIDIUM 39 [-]</OBJECT_NAME><OBJECT_ID>1997-069D</OBJECT_ID><CENTER_NAME>EARTH</CENTER_NAME><REF_FRAME>TEME</REF_FRAME><TIME_SYSTEM>UTC</TIME_SYSTEM><MEAN_ELEMENT_THEORY>SGP4</MEAN_ELEMENT_THEORY></metadata><data><meanElements><EPOCH>2023-11-15T16:12:53.923104</EPOCH><MEAN_MOTION>14.47496671</MEAN_MOTION><ECCENTRICITY>.0020464</ECCENTRICITY><INCLINATION>86.3890</INCLINATION><RA_OF_ASC_NODE>99.3422</RA_OF_ASC_NODE><ARG_OF_PERICENTER>81.1836</ARG_OF_PERICENTER><MEAN_ANOMALY>279.1683</MEAN_ANOMALY></meanElements><tleParameters><EPHEMERIS_TYPE>0</EPHEMERIS_TYPE><CLASSIFICATION_TYPE>U</CLASSIFICATION_TYPE><NORAD_CAT_ID>25042</NORAD_CAT_ID><ELEMENT_SET_NO>999</ELEMENT_SET_NO><REV_AT_EPOCH>36508</REV_AT_EPOCH><BSTAR>.2662E-3</BSTAR><MEAN_MOTION_DOT>.1001E-4</MEAN_MOTION_DOT><MEAN_MOTION_DDOT>0</MEAN_MOTION_DDOT></tleParameters></data></segment></body></omm>
<omm id="CCSDS_OMM_VERS" version="2.0">
<header><CREATION_DATE/><ORIGINATOR/></header><body><segment><metadata><OBJECT_NAME>IRIDIUM 38 [-]</OBJECT_NAME><OBJECT_ID>1997-069E</OBJECT_ID><CENTER_NAME>EARTH</CENTER_NAME><REF_FRAME>TEME</REF_FRAME><TIME_SYSTEM>UTC</TIME_SYSTEM><MEAN_ELEMENT_THEORY>SGP4</MEAN_ELEMENT_THEORY></metadata><data><meanElements><EPOCH>2023-11-15T21:16:26.502240</EPOCH><MEAN_MOTION>14.36964247</MEAN_MOTION><ECCENTRICITY>.0001931</ECCENTRICITY><INCLINATION>86.3930</INCLINATION><RA_OF_ASC_NODE>116.7108</RA_OF_ASC_NODE><ARG_OF_PERICENTER>152.8030</ARG_OF_PERICENTER><MEAN_ANOMALY>207.3269</MEAN_ANOMALY></meanElements><tleParameters><EPHEMERIS_TYPE>0</EPHEMERIS_TYPE><CLASSIFICATION_TYPE>U</CLASSIFICATION_TYPE><NORAD_CAT_ID>25043</NORAD_CAT_ID><ELEMENT_SET_NO>999</ELEMENT_SET_NO><REV_AT_EPOCH>36273</REV_AT_EPOCH><BSTAR>.21505E-3</BSTAR><MEAN_MOTION_DOT>.656E-5</MEAN_MOTION_DOT><MEAN_MOTION_DDOT>0</MEAN_MOTION_DDOT></tleParameters></data></segment></body></omm>
<omm id="CCSDS_OMM_VERS" version="2.0">
<header><CREATION_DATE/><ORIGINATOR/></header><body><segment><metadata><OBJECT_NAME>IRIDIUM 42 [-]</OBJECT_NAME><OBJECT_ID>1997-077A</OBJECT_ID><CENTER_NAME>EARTH</CENTER_NAME><REF_FRAME>TEME</REF_FRAME><TIME_SYSTEM>UTC</TIME_SYSTEM><MEAN_ELEMENT_THEORY>SGP4</MEAN_ELEMENT_THEORY></metadata><data><meanElements><EPOCH>2023-11-15T13:06:54.614016</EPOCH><MEAN_MOTION>14.35271968</MEAN_MOTION><ECCENTRICITY>.0001797</ECCENTRICITY><INCLINATION>86.3936</INCLINATION><RA_OF_ASC_NODE>122.3180</RA_OF_ASC_NODE><ARG_OF_PERICENTER>107.3333</ARG_OF_PERICENTER><MEAN_ANOMALY>252.8060</MEAN_ANOMALY></meanElements><tleParameters><EPHEMERIS_TYPE>0</EPHEMERIS_TYPE><CLASSIFICATION_TYPE>U</CLASSIFICATION_TYPE><NORAD_CAT_ID>25077</NORAD_CAT_ID><ELEMENT_SET_NO>999</ELEMENT_SET_NO><REV_AT_EPOCH>35802</REV_AT_EPOCH><BSTAR>.19515E-3</BSTAR><MEAN_MOTION_DOT>.578E-5</MEAN_MOTION_DOT><MEAN_MOTION_DDOT>0</MEAN_MOTION_DDOT></tleParameters></data></segment></body></omm>
<omm id="CCSDS_OMM_VERS" version="2.0">
<header><CREATION_DATE/><ORIGINATOR/></header><body><segment><metadata><OBJECT_NAME>IRIDIUM 44 [-]</OBJECT_NAME><OBJECT_ID>1997-077B</OBJECT_ID><CENTER_NAME>EARTH</CENTER_NAME><REF_FRAME>TEME</REF_FRAME><TIME_SYSTEM>UTC</TIME_SYSTEM><MEAN_ELEMENT_THEORY>SGP4</MEAN_ELEMENT_THEORY></metadata><data><meanElements><EPOCH>2023-11-15T15:49:13.296288</EPOCH><MEAN_MOTION>14.39071271</MEAN_MOTION><ECCENTRICITY>.00037</ECCENTRICITY><INCLINATION>86.3926</INCLINATION><RA_OF_ASC_NODE>105.7474</RA_OF_ASC_NODE><ARG_OF_PERICENTER>111.1303</ARG_OF_PERICENTER><MEAN_ANOMALY>249.0291</MEAN_ANOMALY></meanElements><tleParameters><EPHEMERIS_TYPE>0</EPHEMERIS_TYPE><CLASSIFICATION_TYPE>U</CLASSIFICATION_TYPE><NORAD_CAT_ID>25078</NORAD_CAT_ID><ELEMENT_SET_NO>999</ELEMENT_SET_NO><REV_AT_EPOCH>36032</REV_AT_EPOCH><BSTAR>.21495E-3</BSTAR><MEAN_MOTION_DOT>.684E-5</MEAN_MOTION_DOT><MEAN_MOTION_DDOT>0</MEAN_MOTION_DDOT></tleParameters></data></segment></body></omm>
<omm id="CCSDS_OMM_VERS" version="2.0">
<header><CREATION_DATE/><ORIGINATOR/></header><body><segment><metadata><OBJECT_NAME>IRIDIUM 45 [-]</OBJECT_NAME><OBJECT_ID>1997-082A</OBJECT_ID><CENTER_NAME>EARTH</CENTER_NAME><REF_FRAME>TEME</REF_FRAME><TIME_SYSTEM>UTC</TIME_SYSTEM><MEAN_ELEMENT_THEORY>SGP4</MEAN_ELEMENT_THEORY></metadata><data><meanElements><EPOCH>2023-11-15T12:19:25.365792</EPOCH><MEAN_MOTION>14.96738672</MEAN_MOTION><ECCENTRICITY>.0174313</ECCENTRICITY><INCLINATION>86.3734</INCLINATION><RA_OF_ASC_NODE>322.5205</RA_OF_ASC_NODE><ARG_OF_PERICENTER>297.0604</ARG_OF_PERICENTER><MEAN_ANOMALY>61.2930</MEAN_ANOMALY></meanElements><tleParameters><EPHEMERIS_TYPE>0</EPHEMERIS_TYPE><CLASSIFICATION_TYPE>U</CLASSIFICATION_TYPE><NORAD_CAT_ID>25104</NORAD_CAT_ID><ELEMENT_SET_NO>999</ELEMENT_SET_NO><REV_AT_EPOCH>36468</REV_AT_EPOCH><BSTAR>.74938E-3</BSTAR><MEAN_MOTION_DOT>.1173E-3</MEAN_MOTION_DOT><MEAN_MOTION_DDOT>0</MEAN_MOTION_DDOT></tleParameters></data></segment></body></omm>
<omm id="CCSDS_OMM_VERS" version="2.0">
<header><CREATION_DATE/><ORIGINATOR/></header><body><segment><metadata><OBJECT_NAME>IRIDIUM 24 [-]</OBJECT_NAME><OBJECT_ID>1997-082B</OBJECT_ID><CENTER_NAME>EARTH</CENTER_NAME><REF_FRAME>TEME</REF_FRAME><TIME_SYSTEM>UTC</TIME_SYSTEM><MEAN_ELEMENT_THEORY>SGP4</MEAN_ELEMENT_THEORY></metadata><data><meanElements><EPOCH>2023-11-15T17:35:40.919136</EPOCH><MEAN_MOTION>14.40830233</MEAN_MOTION><ECCENTRICITY>.0011358</ECCENTRICITY><INCLINATION>86.3888</INCLINATION><RA_OF_ASC_NODE>325.6855</RA_OF_ASC_NODE><ARG_OF_PERICENTER>179.6399</ARG_OF_PERICENTER><MEAN_ANOMALY>180.4811</MEAN_ANOMALY></meanElements><tleParameters><EPHEMERIS_TYPE>0</EPHEMERIS_TYPE><CLASSIFICATION_TYPE>U</CLASSIFICATION_TYPE><NORAD_CAT_ID>25105</NORAD_CAT_ID><ELEMENT_SET_NO>999</ELEMENT_SET_NO><REV_AT_EPOCH>35974</REV_AT_EPOCH><BSTAR>.20784E-3</BSTAR><MEAN_MOTION_DOT>.686E-5</MEAN_MOTION_DOT><MEAN_MOTION_DDOT>0</MEAN_MOTION_DDOT></tleParameters></data></segment></body></omm>
<omm id="CCSDS_OMM_VERS" version="2.0">
<header><CREATION_DATE/><ORIGINATOR/></header><body><segment><metadata><OBJECT_NAME>IRIDIUM 51 [-]</OBJECT_NAME><OBJECT_ID>1998-018A</OBJECT_ID><CENTER_NAME>EARTH</CENTER_NAME><REF_FRAME>TEME</REF_FRAME><TIME_SYSTEM>UTC</TIME_SYSTEM><MEAN_ELEMENT_THEORY>SGP4</MEAN_ELEMENT_THEORY></metadata><data><meanElements><EPOCH>2023-11-15T12:55:47.523936</EPOCH><MEAN_MOTION>15.03673670</MEAN_MOTION><ECCENTRICITY>.0160114</ECCENTRICITY><INCLINATION>86.3915</INCLINATION><RA_OF_ASC_NODE>332.9526</RA_OF_ASC_NODE><ARG_OF_PERICENTER>249.5099</ARG_OF_PERICENTER><MEAN_ANOMALY>108.8887</MEAN_ANOMALY></meanElements><tleParameters><EPHEMERIS_TYPE>0</EPHEMERIS_TYPE><CLASSIFICATION_TYPE>U</CLASSIFICATION_TYPE><NORAD_CAT_ID>25262</NORAD_CAT_ID><ELEMENT_SET_NO>999</ELEMENT_SET_NO><REV_AT_EPOCH>35930</REV_AT_EPOCH><BSTAR>.609E-3</BSTAR><MEAN_MOTION_DOT>.1112E-3</MEAN_MOTION_DOT><MEAN_MOTION_DDOT>0</MEAN_MOTION_DDOT></tleParameters></data></segment></body></omm>

</ndm>
