IRIDIUM 36 [-]          
1 24967U 97056C   23319.32338007  .00000608  00000+0  20066-3 0  9999
2 24967  86.3988  56.4485 0002261  93.7770 266.3685 14.36508744368946
IRIDIUM 39 [-]          
1 25042U 97069D   23319.67562411  .00001001  00000+0  26620-3 0  9994
2 25042  86.3890  99.3422 0020464  81.1836 279.1683 14.47496671365088
IRIDIUM 38 [-]          
1 25043U 97069E   23319.88641785  .00000656  00000+0  21505-3 0  9992
2 25043  86.3930 116.7108 0001931 152.8030 207.3269 14.36964247362738
IRIDIUM 42 [-]          
1 25077U 97077A   23319.54646544  .00000578  00000+0  19515-3 0  9990
2 25077  86.3936 122.3180 0001797 107.3333 252.8060 14.35271968358026
IRIDIUM 44 [-]          
1 25078U 97077B   23319.65918167  .00000684  00000+0  21495-3 0  9994
2 25078  86.3926 105.7474 0003700 111.1303 249.0291 14.39071271360322
IRIDIUM 45 [-]          
1 25104U 97082A   23319.51348803  .00011730  00000+0  74938-3 0  9993
2 25104  86.3734 322.5205 0174313 297.0604  61.2930 14.96738672364682
IRIDIUM 24 [-]          
1 25105U 97082B   23319.73311249  .00000686  00000+0  20784-3 0  9990
2 25105  86.3888 325.6855 0011358 179.6399 180.4811 14.40830233359741
IRIDIUM 51 [-]          
1 25262U 98018A   23319.53874449  .00011120  00000+0  60900-3 0  9997
2 25262  86.3915 332.9526 0160114 249.5099 108.8887 15.03673670359300
